{"type": "FeatureCollection", "features": [ {"type": "Feature", "properties": {"norad_id": 41335, "name": "SENTINEL-3A", "group": "resource", "lat": 23.319928581172913, "lon": -133.72833596976645, "alt_km": 801.8386104365063, "timestamp": "2025-12-03T08:58:45.656454+00:00", "meta": {"OBJECT_NAME": "SENTINEL-3A", "OBJECT_ID": "2016-011A", "EPOCH": "2025-12-03T03:11:59.798400", "MEAN_MOTION": 14.26740449, "ECCENTRICITY": 9.95e-05, "INCLINATION": 98.622, "RA_OF_ASC_NODE": 42.2843, "ARG_OF_PERICENTER": 91.2151, "MEAN_ANOMALY": 268.9143, "EPHEMERIS_TYPE": 0, "CLASSIFICATION_TYPE": "U", "NORAD_CAT_ID": 41335, "ELEMENT_SET_NO": 999, "REV_AT_EPOCH": 51010, "BSTAR": 0.00010219, "MEAN_MOTION_DOT": 2.04e-06, "MEAN_MOTION_DDOT": 0}, "tle": {"line1": "1 41335U 16011A   25337.13333100  .00000204  00000+0  10219-3 0  9990", "line2": "2 41335  98.6220  42.2843 0000995  91.2151 268.9143 14.26740449510101"}}, "geometry": {"type": "Point", "coordinates": [-133.72833596976645, 23.319928581172913]}}, {"type": "Feature", "properties": {"norad_id": 41556, "name": "ZIYUAN 3-2 (ZY 3-2)", "group": "resource", "lat": -37.714313627503984, "lon": 57.4683805287144, "alt_km": 501.52727050632166, "timestamp": "2025-12-03T08:58:45.656464+00:00", "meta": {"OBJECT_NAME": "ZIYUAN 3-2 (ZY 3-2)", "OBJECT_ID": "2016-033A", "EPOCH": "2025-12-03T04:24:37.247616", "MEAN_MOTION": 15.21280053, "ECCENTRICITY": 0.001244, "INCLINATION": 97.4061, "RA_OF_ASC_NODE": 51.5082, "ARG_OF_PERICENTER": 286.5067, "MEAN_ANOMALY": 73.4802, "EPHEMERIS_TYPE": 0, "CLASSIFICATION_TYPE": "U", "NORAD_CAT_ID": 41556, "ELEMENT_SET_NO": 999, "REV_AT_EPOCH": 52818, "BSTAR": 0.00043749, "MEAN_MOTION_DOT": 9.736e-05, "MEAN_MOTION_DDOT": 0}, "tle": {"line1": "1 41556U 16033A   25337.18376444  .00009736  00000+0  43749-3 0  9995", "line2": "2 41556  97.4061  51.5082 0012440 286.5067  73.4802 15.21280053528181"}}, "geometry": {"type": "Point", "coordinates": [57.4683805287144, -37.714313627503984]}}, {"type": "Feature", "properties": {"norad_id": 41599, "name": "CARTOSAT-2C", "group": "resource", "lat": -21.05103734227648, "lon": 37.618369673630966, "alt_km": 516.9442159230157, "timestamp": "2025-12-03T08:58:45.656475+00:00", "meta": {"OBJECT_NAME": "CARTOSAT-2C", "OBJECT_ID": "2016-040A", "EPOCH": "2025-12-03T04:19:48.482400", "MEAN_MOTION": 15.19137461, "ECCENTRICITY": 0.001096, "INCLINATION": 97.4781, "RA_OF_ASC_NODE": 34.5287, "ARG_OF_PERICENTER": 94.1531, "MEAN_ANOMALY": 266.0956, "EPHEMERIS_TYPE": 0, "CLASSIFICATION_TYPE": "U", "NORAD_CAT_ID": 41599, "ELEMENT_SET_NO": 999, "REV_AT_EPOCH": 52395, "BSTAR": 3.0865e-05, "MEAN_MOTION_DOT": 5.8e-06, "MEAN_MOTION_DDOT": 0}, "tle": {"line1": "1 41599U 16040A   25337.18042225  .00000580  00000+0  30865-4 0  9991", "line2": "2 41599  97.4781  34.5287 0010960  94.1531 266.0956 15.19137461523950"}}, "geometry": {"type": "Point", "coordinates": [37.618369673630966, -21.05103734227648]}}, {"type": "Feature", "properties": {"norad_id": 41601, "name": "SKYSAT-C1", "group": "resource", "lat": -50.633969465970885, "lon": 23.51109244531564, "alt_km": 475.8626195732695, "timestamp": "2025-12-03T08:58:45.656485+00:00", "meta": {"OBJECT_NAME": "SKYSAT-C1", "OBJECT_ID": "2016-040C", "EPOCH": "2025-12-03T01:21:56.871936", "MEAN_MOTION": 15.3231257, "ECCENTRICITY": 0.0003335, "INCLINATION": 96.984, "RA_OF_ASC_NODE": 14.6184, "ARG_OF_PERICENTER": 39.7719, "MEAN_ANOMALY": 320.3768, "EPHEMERIS_TYPE": 0, "CLASSIFICATION_TYPE": "U", "NORAD_CAT_ID": 41601, "ELEMENT_SET_NO": 999, "REV_AT_EPOCH": 52779, "BSTAR": 0.0004128, "MEAN_MOTION_DOT": 0.00012816, "MEAN_MOTION_DDOT": 0}, "tle": {"line1": "1 41601U 16040C   25337.05690824  .00012816  00000+0  41280-3 0  9992", "line2": "2 41601  96.9840  14.6184 0003335  39.7719 320.3768 15.32312570527792"}}, "geometry": {"type": "Point", "coordinates": [23.51109244531564, -50.633969465970885]}}, {"type": "Feature", "properties": {"norad_id": 41603, "name": "LAPAN-A3", "group": "resource", "lat": 54.09227675933037, "lon": 165.24499987260492, "alt_km": 469.8425333714431, "timestamp": "2025-12-03T08:58:45.656496+00:00", "meta": {"OBJECT_NAME": "LAPAN-A3", "OBJECT_ID": "2016-040E", "EPOCH": "2025-12-03T05:17:55.119840", "MEAN_MOTION": 15.31431967, "ECCENTRICITY": 0.0010862, "INCLINATION": 97.1422, "RA_OF_ASC_NODE": 335.1248, "ARG_OF_PERICENTER": 8.8722, "MEAN_ANOMALY": 351.271, "EPHEMERIS_TYPE": 0, "CLASSIFICATION_TYPE": "U", "NORAD_CAT_ID": 41603, "ELEMENT_SET_NO": 999, "REV_AT_EPOCH": 52480, "BSTAR": 0.00016925, "MEAN_MOTION_DOT": 5.071e-05, "MEAN_MOTION_DDOT": 0}, "tle": {"line1": "1 41603U 16040E   25337.22077685  .00005071  00000+0  16925-3 0  9990", "line2": "2 41603  97.1422 335.1248 0010862   8.8722 351.2710 15.31431967524809"}}, "geometry": {"type": "Point", "coordinates": [165.24499987260492, 54.09227675933037]}}, {"type": "Feature", "properties": {"norad_id": 41604, "name": "BIROS", "group": "resource", "lat": -33.941217492647304, "lon": -176.33419832619077, "alt_km": 318.88392306389414, "timestamp": "2025-12-03T08:58:45.656507+00:00", "meta": {"OBJECT_NAME": "BIROS", "OBJECT_ID": "2016-040F", "EPOCH": "2025-12-03T02:01:16.925088", "MEAN_MOTION": 15.85761884, "ECCENTRICITY": 0.0002586, "INCLINATION": 97.0708, "RA_OF_ASC_NODE": 8.158, "ARG_OF_PERICENTER": 175.694, "MEAN_ANOMALY": 184.4354, "EPHEMERIS_TYPE": 0, "CLASSIFICATION_TYPE": "U", "NORAD_CAT_ID": 41604, "ELEMENT_SET_NO": 999, "REV_AT_EPOCH": 52719, "BSTAR": 0.0006928, "MEAN_MOTION_DOT": 0.00170402, "MEAN_MOTION_DDOT": 0}, "tle": {"line1": "1 41604U 16040F   25337.08422367  .00170402  00000+0  69280-3 0  9999", "line2": "2 41604  97.0708   8.1580 0002586 175.6940 184.4354 15.85761884527199"}}, "geometry": {"type": "Point", "coordinates": [-176.33419832619077, -33.941217492647304]}}, {"type": "Feature", "properties": {"norad_id": 41727, "name": "GAOFEN-3", "group": "resource", "lat": 26.892965010559358, "lon": -21.196806928660074, "alt_km": 749.3537403918817, "timestamp": "2025-12-03T08:58:45.656517+00:00", "meta": {"OBJECT_NAME": "GAOFEN-3", "OBJECT_ID": "2016-049A", "EPOCH": "2025-12-03T05:31:24.406176", "MEAN_MOTION": 14.4220971, "ECCENTRICITY": 0.0001593, "INCLINATION": 98.4041, "RA_OF_ASC_NODE": 342.9614, "ARG_OF_PERICENTER": 73.4858, "MEAN_ANOMALY": 286.6507, "EPHEMERIS_TYPE": 0, "CLASSIFICATION_TYPE": "U", "NORAD_CAT_ID": 41727, "ELEMENT_SET_NO": 999, "REV_AT_EPOCH": 49040, "BSTAR": 3.6986e-05, "MEAN_MOTION_DOT": 7.8e-07, "MEAN_MOTION_DDOT": 0}, "tle": {"line1": "1 41727U 16049A   25337.23014359  .00000078  00000+0  36986-4 0  9998", "line2": "2 41727  98.4041 342.9614 0001593  73.4858 286.6507 14.42209710490402"}}, "geometry": {"type": "Point", "coordinates": [-21.196806928660074, 26.892965010559358]}}, {"type": "Feature", "properties": {"norad_id": 41771, "name": "SKYSAT-C4", "group": "resource", "lat": -76.64331801383227, "lon": 33.87810396199896, "alt_km": 448.5353088501415, "timestamp": "2025-12-03T08:58:45.656527+00:00", "meta": {"OBJECT_NAME": "SKYSAT-C4", "OBJECT_ID": "2016-058B", "EPOCH": "2025-12-03T01:31:53.869152", "MEAN_MOTION": 15.41822547, "ECCENTRICITY": 7.12e-05, "INCLINATION": 96.9385, "RA_OF_ASC_NODE": 2.7254, "ARG_OF_PERICENTER": 114.2264, "MEAN_ANOMALY": 245.9058, "EPHEMERIS_TYPE": 0, "CLASSIFICATION_TYPE": "U", "NORAD_CAT_ID": 41771, "ELEMENT_SET_NO": 999, "REV_AT_EPOCH": 51518, "BSTAR": 0.00044922, "MEAN_MOTION_DOT": 0.00018978, "MEAN_MOTION_DDOT": 0}, "tle": {"line1": "1 41771U 16058B   25337.06381793  .00018978  00000+0  44922-3 0  9993", "line2": "2 41771  96.9385   2.7254 0000712 114.2264 245.9058 15.41822547515184"}}, "geometry": {"type": "Point", "coordinates": [33.87810396199896, -76.64331801383227]}}, {"type": "Feature", "properties": {"norad_id": 41772, "name": "SKYSAT-C5", "group": "resource", "lat": 60.843472331366705, "lon": 8.630326067818597, "alt_km": 453.1347389429038, "timestamp": "2025-12-03T08:58:45.656537+00:00", "meta": {"OBJECT_NAME": "SKYSAT-C5", "OBJECT_ID": "2016-058C", "EPOCH": "2025-12-03T02:27:18.995616", "MEAN_MOTION": 15.35381437, "ECCENTRICITY": 0.0002691, "INCLINATION": 97.0777, "RA_OF_ASC_NODE": 21.2377, "ARG_OF_PERICENTER": 130.7295, "MEAN_ANOMALY": 229.4184, "EPHEMERIS_TYPE": 0, "CLASSIFICATION_TYPE": "U", "NORAD_CAT_ID": 41772, "ELEMENT_SET_NO": 999, "REV_AT_EPOCH": 51368, "BSTAR": 0.0018731, "MEAN_MOTION_DOT": 0.00064768, "MEAN_MOTION_DDOT": 0}, "tle": {"line1": "1 41772U 16058C   25337.10230319  .00064768  00000+0  18731-2 0  9992", "line2": "2 41772  97.0777  21.2377 0002691 130.7295 229.4184 15.35381437513680"}}, "geometry": {"type": "Point", "coordinates": [8.630326067818597, 60.843472331366705]}}, {"type": "Feature", "properties": {"norad_id": 41773, "name": "SKYSAT-C2", "group": "resource", "lat": 12.079178186894152, "lon": 0.7856483486245581, "alt_km": 454.1294458131151, "timestamp": "2025-12-03T08:58:45.656547+00:00", "meta": {"OBJECT_NAME": "SKYSAT-C2", "OBJECT_ID": "2016-058D", "EPOCH": "2025-12-03T01:06:49.368672", "MEAN_MOTION": 15.36929314, "ECCENTRICITY": 0.0005101, "INCLINATION": 97.0371, "RA_OF_ASC_NODE": 1.9867, "ARG_OF_PERICENTER": 58.7522, "MEAN_ANOMALY": 301.4222, "EPHEMERIS_TYPE": 0, "CLASSIFICATION_TYPE": "U", "NORAD_CAT_ID": 41773, "ELEMENT_SET_NO": 999, "REV_AT_EPOCH": 51487, "BSTAR": 0.00040683, "MEAN_MOTION_DOT": 0.00014631, "MEAN_MOTION_DDOT": 0}, "tle": {"line1": "1 41773U 16058D   25337.04640473  .00014631  00000+0  40683-3 0  9998", "line2": "2 41773  97.0371   1.9867 0005101  58.7522 301.4222 15.36929314514870"}}, "geometry": {"type": "Point", "coordinates": [0.7856483486245581, 12.079178186894152]}}]}